0 COSMOS 1476
1 14174U 83069D   13280.80143647  .00000004  00000-0  12747-3 0  2429
2 14174 074.0245 303.6683 0011607 328.0824 143.6139 12.52475384383644
0 COSMOS 1476
1 14174U 83069D   13283.10513825  .00000011  00000-0  16913-3 0  2432
2 14174 074.0242 300.5916 0011634 324.7399 090.6667 12.52475338383934
0 COSMOS 1476
1 14174U 83069D   13287.52203174 -.00000022  00000-0 -34896-4 0  2452
2 14174 074.0238 294.6922 0011718 318.4433 205.6785 12.52475871384483
0 COSMOS 1476
1 14174U 83069D   13289.74665600 -.00000030  00000-0 -86792-4 0  2466
2 14174 074.0240 291.7206 0011723 315.1773 156.2242 12.52475983384760
0 COSMOS 1476
1 14174U 83069D   13292.12813894 -.00000021  00000-0 -32174-4 0  2478
2 14174 074.0243 288.5397 0011747 311.7773 093.9301 12.52475831385065
0 COSMOS 1476
1 14174U 83069D   13294.12984385 -.00000000  00000-0  10198-3 0  2482
2 14174 074.0245 285.8662 0011770 308.9850 119.2148 12.52475667385318
